{
  "type": "FeatureCollection",
  "features": [
    {
      "type": "Feature",
      "properties": {
        "norad_id": 31978,
        "name": "FENGYUN 1C DEB",
        "group": "fengyun-1c-debris",
        "lat": 68.891622754161,
        "lon": -9.249720347304997,
        "alt_km": 977.1490820281142,
        "timestamp": "2025-12-20T07:33:51.097845+00:00",
        "meta_object_name": "FENGYUN 1C DEB",
        "meta_object_id": "1999-025CPF",
        "meta_epoch": "2025-12-18T09:15:01.115712",
        "meta_mean_motion": 13.63124115,
        "meta_eccentricity": 0.02630419,
        "meta_inclination": 98.3793,
        "meta_ra_of_asc_node": 146.6417,
        "meta_arg_of_pericenter": 35.0311,
        "meta_mean_anomaly": 326.7827,
        "meta_ephemeris_type": 0,
        "meta_classification_type": "U",
        "meta_norad_cat_id": 31978,
        "meta_element_set_no": 999,
        "meta_rev_at_epoch": 91667,
        "meta_bstar": 0.0010168637,
        "meta_mean_motion_dot": 9.73e-06,
        "meta_mean_motion_ddot": 0,
        "tle_line1": "1 31978U 99025CPF 25352.38542958  .00000973  00000+0  10169-2 0  9991",
        "tle_line2": "2 31978  98.3793 146.6417 0263041  35.0311 326.7827 13.63124115916678"
      },
      "geometry": {
        "type": "Point",
        "coordinates": [
          -9.249720347304997,
          68.891622754161
        ]
      }
    },
    {
      "type": "Feature",
      "properties": {
        "norad_id": 31979,
        "name": "FENGYUN 1C DEB",
        "group": "fengyun-1c-debris",
        "lat": -8.486304386452359,
        "lon": -94.68968525257816,
        "alt_km": 942.7529169380778,
        "timestamp": "2025-12-20T07:33:51.097855+00:00",
        "meta_object_name": "FENGYUN 1C DEB",
        "meta_object_id": "1999-025CPG",
        "meta_epoch": "2025-12-18T02:00:34.037856",
        "meta_mean_motion": 13.6932555,
        "meta_eccentricity": 0.02673615,
        "meta_inclination": 99.377,
        "meta_ra_of_asc_node": 84.5492,
        "meta_arg_of_pericenter": 267.099,
        "meta_mean_anomaly": 89.9533,
        "meta_ephemeris_type": 0,
        "meta_classification_type": "U",
        "meta_norad_cat_id": 31979,
        "meta_element_set_no": 999,
        "meta_rev_at_epoch": 57985,
        "meta_bstar": 0.0027907291,
        "meta_mean_motion_dot": 3.07e-05,
        "meta_mean_motion_ddot": 0,
        "tle_line1": "1 31979U 99025CPG 25352.08372729  .00003070  00000+0  27907-2 0  9995",
        "tle_line2": "2 31979  99.3770  84.5492 0267361 267.0990  89.9533 13.69325550579856"
      },
      "geometry": {
        "type": "Point",
        "coordinates": [
          -94.68968525257816,
          -8.486304386452359
        ]
      }
    },
    {
      "type": "Feature",
      "properties": {
        "norad_id": 31980,
        "name": "FENGYUN 1C DEB",
        "group": "fengyun-1c-debris",
        "lat": -61.68254369023995,
        "lon": 92.04291952680737,
        "alt_km": 1437.7518165457768,
        "timestamp": "2025-12-20T07:33:51.097866+00:00",
        "meta_object_name": "FENGYUN 1C DEB",
        "meta_object_id": "1999-025CPH",
        "meta_epoch": "2025-12-16T11:57:41.696928",
        "meta_mean_motion": 13.32153551,
        "meta_eccentricity": 0.04281038,
        "meta_inclination": 97.6145,
        "meta_ra_of_asc_node": 74.8269,
        "meta_arg_of_pericenter": 103.3204,
        "meta_mean_anomaly": 261.6022,
        "meta_ephemeris_type": 0,
        "meta_classification_type": "U",
        "meta_norad_cat_id": 31980,
        "meta_element_set_no": 999,
        "meta_rev_at_epoch": 89720,
        "meta_bstar": 0.00040322723,
        "meta_mean_motion_dot": 3.01e-06,
        "meta_mean_motion_ddot": 0,
        "tle_line1": "1 31980U 99025CPH 25350.49839927  .00000301  00000+0  40323-3 0  9990",
        "tle_line2": "2 31980  97.6145  74.8269 0428103 103.3204 261.6022 13.32153551897206"
      },
      "geometry": {
        "type": "Point",
        "coordinates": [
          92.04291952680737,
          -61.68254369023995
        ]
      }
    },
    {
      "type": "Feature",
      "properties": {
        "norad_id": 31984,
        "name": "FENGYUN 1C DEB",
        "group": "fengyun-1c-debris",
        "lat": -64.83556716152553,
        "lon": 159.74448985382094,
        "alt_km": 788.328418222819,
        "timestamp": "2025-12-20T07:33:51.097876+00:00",
        "meta_object_name": "FENGYUN 1C DEB",
        "meta_object_id": "1999-025CPM",
        "meta_epoch": "2025-12-18T07:09:32.915232",
        "meta_mean_motion": 14.22968839,
        "meta_eccentricity": 0.00628019,
        "meta_inclination": 98.5578,
        "meta_ra_of_asc_node": 356.4784,
        "meta_arg_of_pericenter": 210.9858,
        "meta_mean_anomaly": 148.7609,
        "meta_ephemeris_type": 0,
        "meta_classification_type": "U",
        "meta_norad_cat_id": 31984,
        "meta_element_set_no": 999,
        "meta_rev_at_epoch": 94452,
        "meta_bstar": 0.00030022048,
        "meta_mean_motion_dot": 6.47e-06,
        "meta_mean_motion_ddot": 0,
        "tle_line1": "1 31984U 99025CPM 25352.29829763  .00000647  00000+0  30022-3 0  9999",
        "tle_line2": "2 31984  98.5578 356.4784 0062801 210.9858 148.7609 14.22968839944527"
      },
      "geometry": {
        "type": "Point",
        "coordinates": [
          159.74448985382094,
          -64.83556716152553
        ]
      }
    },
    {
      "type": "Feature",
      "properties": {
        "norad_id": 31985,
        "name": "FENGYUN 1C DEB",
        "group": "fengyun-1c-debris",
        "lat": 20.887188085941332,
        "lon": -108.12173808416131,
        "alt_km": 914.2953756054821,
        "timestamp": "2025-12-20T07:33:51.097887+00:00",
        "meta_object_name": "FENGYUN 1C DEB",
        "meta_object_id": "1999-025CPN",
        "meta_epoch": "2025-12-13T23:34:50.116800",
        "meta_mean_motion": 14.22977716,
        "meta_eccentricity": 0.01504255,
        "meta_inclination": 98.2196,
        "meta_ra_of_asc_node": 249.1254,
        "meta_arg_of_pericenter": 243.0612,
        "meta_mean_anomaly": 115.5134,
        "meta_ephemeris_type": 0,
        "meta_classification_type": "U",
        "meta_norad_cat_id": 31985,
        "meta_element_set_no": 999,
        "meta_rev_at_epoch": 95628,
        "meta_bstar": 0.00043991826,
        "meta_mean_motion_dot": 1.071e-05,
        "meta_mean_motion_ddot": 0,
        "tle_line1": "1 31985U 99025CPN 25347.98252450  .00001071  00000+0  43992-3 0  9995",
        "tle_line2": "2 31985  98.2196 249.1254 0150425 243.0612 115.5134 14.22977716956281"
      },
      "geometry": {
        "type": "Point",
        "coordinates": [
          -108.12173808416131,
          20.887188085941332
        ]
      }
    },
    {
      "type": "Feature",
      "properties": {
        "norad_id": 31987,
        "name": "FENGYUN 1C DEB",
        "group": "fengyun-1c-debris",
        "lat": 40.813321702571685,
        "lon": -39.50128394135595,
        "alt_km": 740.9209258545925,
        "timestamp": "2025-12-20T07:33:51.097897+00:00",
        "meta_object_name": "FENGYUN 1C DEB",
        "meta_object_id": "1999-025CPQ",
        "meta_epoch": "2025-12-19T21:39:45.435744",
        "meta_mean_motion": 14.4495322,
        "meta_eccentricity": 0.00518517,
        "meta_inclination": 99.0391,
        "meta_ra_of_asc_node": 327.9616,
        "meta_arg_of_pericenter": 136.176,
        "meta_mean_anomaly": 281.0673,
        "meta_ephemeris_type": 0,
        "meta_classification_type": "U",
        "meta_norad_cat_id": 31987,
        "meta_element_set_no": 999,
        "meta_rev_at_epoch": 96473,
        "meta_bstar": 0.00061780188,
        "meta_mean_motion_dot": 2.139e-05,
        "meta_mean_motion_ddot": 0,
        "tle_line1": "1 31987U 99025CPQ 25353.90260921  .00002139  00000+0  61780-3 0  9999",
        "tle_line2": "2 31987  99.0391 327.9616 0051851 136.1760 281.0673 14.44953220964739"
      },
      "geometry": {
        "type": "Point",
        "coordinates": [
          -39.50128394135595,
          40.813321702571685
        ]
      }
    },
    {
      "type": "Feature",
      "properties": {
        "norad_id": 31989,
        "name": "FENGYUN 1C DEB",
        "group": "fengyun-1c-debris",
        "lat": 21.334850085979024,
        "lon": 51.803729031447574,
        "alt_km": 934.1274495362186,
        "timestamp": "2025-12-20T07:33:51.097907+00:00",
        "meta_object_name": "FENGYUN 1C DEB",
        "meta_object_id": "1999-025CPS",
        "meta_epoch": "2025-12-15T16:11:35.170368",
        "meta_mean_motion": 13.93591985,
        "meta_eccentricity": 0.0115261,
        "meta_inclination": 99.2132,
        "meta_ra_of_asc_node": 50.8156,
        "meta_arg_of_pericenter": 291.0863,
        "meta_mean_anomaly": 221.027,
        "meta_ephemeris_type": 0,
        "meta_classification_type": "U",
        "meta_norad_cat_id": 31989,
        "meta_element_set_no": 999,
        "meta_rev_at_epoch": 93758,
        "meta_bstar": 0.00049954957,
        "meta_mean_motion_dot": 6.47e-06,
        "meta_mean_motion_ddot": 0,
        "tle_line1": "1 31989U 99025CPS 25349.67471262  .00000647  00000+0  49955-3 0  9994",
        "tle_line2": "2 31989  99.2132  50.8156 0115261 291.0863 221.0270 13.93591985937587"
      },
      "geometry": {
        "type": "Point",
        "coordinates": [
          51.803729031447574,
          21.334850085979024
        ]
      }
    }
  ]
}